{"type": "FeatureCollection", "features": [ {"type": "Feature", "properties": {"norad_id": 34077, "name": "IRIDIUM 33 DEB", "group": "iridium-33-debris", "lat": -36.934142100999544, "lon": 44.08293402604911, "alt_km": 678.8758812545557, "timestamp": "2025-12-23T09:49:07.467932+00:00", "meta": {"OBJECT_NAME": "IRIDIUM 33 DEB", "OBJECT_ID": "1997-051CL", "EPOCH": "2025-12-22T09:27:37.329984", "MEAN_MOTION": 14.64940807, "ECCENTRICITY": 0.00090827, "INCLINATION": 86.3849, "RA_OF_ASC_NODE": 47.2542, "ARG_OF_PERICENTER": 8.0354, "MEAN_ANOMALY": 6.0314, "EPHEMERIS_TYPE": 0, "CLASSIFICATION_TYPE": "U", "NORAD_CAT_ID": 34077, "ELEMENT_SET_NO": 999, "REV_AT_EPOCH": 88474, "BSTAR": 0.00142765, "MEAN_MOTION_DOT": 7.665e-05, "MEAN_MOTION_DDOT": 0}, "tle": {"line1": "1 34077U 97051CL  25356.39418206  .00007665  00000+0  14276-2 0  9992", "line2": "2 34077  86.3849  47.2542 0009082   8.0354   6.0314 14.64940807884742"}}, "geometry": {"type": "Point", "coordinates": [44.08293402604911, -36.934142100999544]}}, {"type": "Feature", "properties": {"norad_id": 34079, "name": "IRIDIUM 33 DEB", "group": "iridium-33-debris", "lat": -45.413891433887656, "lon": 0.12315668348718903, "alt_km": 621.2065326801239, "timestamp": "2025-12-23T09:49:07.467943+00:00", "meta": {"OBJECT_NAME": "IRIDIUM 33 DEB", "OBJECT_ID": "1997-051CN", "EPOCH": "2025-12-21T13:15:26.349984", "MEAN_MOTION": 14.83733705, "ECCENTRICITY": 0.000457, "INCLINATION": 86.3769, "RA_OF_ASC_NODE": 4.6535, "ARG_OF_PERICENTER": 336.3629, "MEAN_ANOMALY": 147.0439, "EPHEMERIS_TYPE": 0, "CLASSIFICATION_TYPE": "U", "NORAD_CAT_ID": 34079, "ELEMENT_SET_NO": 999, "REV_AT_EPOCH": 89108, "BSTAR": 0.0012935, "MEAN_MOTION_DOT": 0.00010729, "MEAN_MOTION_DDOT": 0}, "tle": {"line1": "1 34079U 97051CN  25355.55238831  .00010729  00000+0  12935-2 0  9990", "line2": "2 34079  86.3769   4.6535 0004570 336.3629 147.0439 14.83733705891080"}}, "geometry": {"type": "Point", "coordinates": [0.12315668348718903, -45.413891433887656]}}, {"type": "Feature", "properties": {"norad_id": 34088, "name": "IRIDIUM 33 DEB", "group": "iridium-33-debris", "lat": -8.989574160460545, "lon": 25.24605867642621, "alt_km": 600.6260558447848, "timestamp": "2025-12-23T09:49:07.467953+00:00", "meta": {"OBJECT_NAME": "IRIDIUM 33 DEB", "OBJECT_ID": "1997-051CX", "EPOCH": "2025-12-22T20:09:23.733792", "MEAN_MOTION": 14.9180728, "ECCENTRICITY": 0.00068167, "INCLINATION": 86.3835, "RA_OF_ASC_NODE": 26.0811, "ARG_OF_PERICENTER": 144.8678, "MEAN_ANOMALY": 31.0989, "EPHEMERIS_TYPE": 0, "CLASSIFICATION_TYPE": "U", "NORAD_CAT_ID": 34088, "ELEMENT_SET_NO": 999, "REV_AT_EPOCH": 88892, "BSTAR": 0.0023808033, "MEAN_MOTION_DOT": 0.00024099, "MEAN_MOTION_DDOT": 0}, "tle": {"line1": "1 34088U 97051CX  25356.83985803  .00024099  00000+0  23808-2 0  9996", "line2": "2 34088  86.3835  26.0811 0006816 144.8678  31.0989 14.91807280888920"}}, "geometry": {"type": "Point", "coordinates": [25.24605867642621, -8.989574160460545]}}, {"type": "Feature", "properties": {"norad_id": 34091, "name": "IRIDIUM 33 DEB", "group": "iridium-33-debris", "lat": 4.5981147426764375, "lon": -118.34960669066209, "alt_km": 619.407972275777, "timestamp": "2025-12-23T09:49:07.467963+00:00", "meta": {"OBJECT_NAME": "IRIDIUM 33 DEB", "OBJECT_ID": "1997-051DA", "EPOCH": "2025-12-22T15:12:28.903968", "MEAN_MOTION": 14.82502954, "ECCENTRICITY": 0.00341969, "INCLINATION": 86.3411, "RA_OF_ASC_NODE": 62.3008, "ARG_OF_PERICENTER": 257.7547, "MEAN_ANOMALY": 101.9845, "EPHEMERIS_TYPE": 0, "CLASSIFICATION_TYPE": "U", "NORAD_CAT_ID": 34091, "ELEMENT_SET_NO": 999, "REV_AT_EPOCH": 88013, "BSTAR": 0.0048076531, "MEAN_MOTION_DOT": 0.00039186, "MEAN_MOTION_DDOT": 0}, "tle": {"line1": "1 34091U 97051DA  25356.63366787  .00039186  00000+0  48077-2 0  9990", "line2": "2 34091  86.3411  62.3008 0034196 257.7547 101.9845 14.82502954880139"}}, "geometry": {"type": "Point", "coordinates": [-118.34960669066209, 4.5981147426764375]}}, {"type": "Feature", "properties": {"norad_id": 34097, "name": "IRIDIUM 33 DEB", "group": "iridium-33-debris", "lat": 47.293567939253755, "lon": 0.8272457271486869, "alt_km": 761.052747395177, "timestamp": "2025-12-23T09:49:07.467973+00:00", "meta": {"OBJECT_NAME": "IRIDIUM 33 DEB", "OBJECT_ID": "1997-051DG", "EPOCH": "2025-12-22T10:10:07.648896", "MEAN_MOTION": 14.34850685, "ECCENTRICITY": 0.00816282, "INCLINATION": 86.1999, "RA_OF_ASC_NODE": 357.1326, "ARG_OF_PERICENTER": 330.4879, "MEAN_ANOMALY": 29.172, "EPHEMERIS_TYPE": 0, "CLASSIFICATION_TYPE": "U", "NORAD_CAT_ID": 34097, "ELEMENT_SET_NO": 999, "REV_AT_EPOCH": 87258, "BSTAR": 0.0014468202, "MEAN_MOTION_DOT": 4.282e-05, "MEAN_MOTION_DDOT": 0}, "tle": {"line1": "1 34097U 97051DG  25356.42369964  .00004282  00000+0  14468-2 0  9999", "line2": "2 34097  86.1999 357.1326 0081628 330.4879  29.1720 14.34850685872588"}}, "geometry": {"type": "Point", "coordinates": [0.8272457271486869, 47.293567939253755]}}, {"type": "Feature", "properties": {"norad_id": 34145, "name": "IRIDIUM 33 DEB", "group": "iridium-33-debris", "lat": -63.52375113807377, "lon": 155.4177495231152, "alt_km": 797.5805892055414, "timestamp": "2025-12-23T09:49:07.467984+00:00", "meta": {"OBJECT_NAME": "IRIDIUM 33 DEB", "OBJECT_ID": "1997-051DY", "EPOCH": "2025-12-22T16:02:40.191072", "MEAN_MOTION": 14.42355185, "ECCENTRICITY": 0.0055643, "INCLINATION": 86.2124, "RA_OF_ASC_NODE": 328.1041, "ARG_OF_PERICENTER": 62.2939, "MEAN_ANOMALY": 298.3891, "EPHEMERIS_TYPE": 0, "CLASSIFICATION_TYPE": "U", "NORAD_CAT_ID": 34145, "ELEMENT_SET_NO": 999, "REV_AT_EPOCH": 87781, "BSTAR": 0.0011008747, "MEAN_MOTION_DOT": 3.725e-05, "MEAN_MOTION_DDOT": 0}, "tle": {"line1": "1 34145U 97051DY  25356.66852073  .00003725  00000+0  11009-2 0  9996", "line2": "2 34145  86.2124 328.1041 0055643  62.2939 298.3891 14.42355185877814"}}, "geometry": {"type": "Point", "coordinates": [155.4177495231152, -63.52375113807377]}}, {"type": "Feature", "properties": {"norad_id": 34146, "name": "IRIDIUM 33 DEB", "group": "iridium-33-debris", "lat": 39.455858962975796, "lon": 162.02017243265192, "alt_km": 712.1157889521437, "timestamp": "2025-12-23T09:49:07.467994+00:00", "meta": {"OBJECT_NAME": "IRIDIUM 33 DEB", "OBJECT_ID": "1997-051DZ", "EPOCH": "2025-12-22T12:12:34.513056", "MEAN_MOTION": 14.49108605, "ECCENTRICITY": 0.0026525, "INCLINATION": 86.2838, "RA_OF_ASC_NODE": 345.4841, "ARG_OF_PERICENTER": 187.7667, "MEAN_ANOMALY": 298.6983, "EPHEMERIS_TYPE": 0, "CLASSIFICATION_TYPE": "U", "NORAD_CAT_ID": 34146, "ELEMENT_SET_NO": 999, "REV_AT_EPOCH": 88248, "BSTAR": 0.00085220356, "MEAN_MOTION_DOT": 3.272e-05, "MEAN_MOTION_DDOT": 0}, "tle": {"line1": "1 34146U 97051DZ  25356.50873279  .00003272  00000+0  85220-3 0  9995", "line2": "2 34146  86.2838 345.4841 0026525 187.7667 298.6983 14.49108605882489"}}, "geometry": {"type": "Point", "coordinates": [162.02017243265192, 39.455858962975796]}}, {"type": "Feature", "properties": {"norad_id": 34159, "name": "IRIDIUM 33 DEB", "group": "iridium-33-debris", "lat": 10.410976978525568, "lon": -136.9800670788128, "alt_km": 762.0365589450021, "timestamp": "2025-12-23T09:49:07.468005+00:00", "meta": {"OBJECT_NAME": "IRIDIUM 33 DEB", "OBJECT_ID": "1997-051EN", "EPOCH": "2025-12-22T02:58:50.860992", "MEAN_MOTION": 14.38515401, "ECCENTRICITY": 0.00260752, "INCLINATION": 86.3498, "RA_OF_ASC_NODE": 44.2398, "ARG_OF_PERICENTER": 254.6532, "MEAN_ANOMALY": 105.1785, "EPHEMERIS_TYPE": 0, "CLASSIFICATION_TYPE": "U", "NORAD_CAT_ID": 34159, "ELEMENT_SET_NO": 999, "REV_AT_EPOCH": 88094, "BSTAR": 0.00034381361, "MEAN_MOTION_DOT": 1.073e-05, "MEAN_MOTION_DDOT": 0}, "tle": {"line1": "1 34159U 97051EN  25356.12419978  .00001073  00000+0  34381-3 0  9998", "line2": "2 34159  86.3498  44.2398 0026075 254.6532 105.1785 14.38515401880947"}}, "geometry": {"type": "Point", "coordinates": [-136.9800670788128, 10.410976978525568]}}, {"type": "Feature", "properties": {"norad_id": 34350, "name": "IRIDIUM 33 DEB", "group": "iridium-33-debris", "lat": 76.58733517654349, "lon": 162.55131309496434, "alt_km": 716.8584482827919, "timestamp": "2025-12-23T09:49:07.468015+00:00", "meta": {"OBJECT_NAME": "IRIDIUM 33 DEB", "OBJECT_ID": "1997-051ES", "EPOCH": "2025-12-22T12:19:49.336608", "MEAN_MOTION": 14.45408788, "ECCENTRICITY": 0.0023434, "INCLINATION": 86.3272, "RA_OF_ASC_NODE": 358.5656, "ARG_OF_PERICENTER": 105.2385, "MEAN_ANOMALY": 21.6906, "EPHEMERIS_TYPE": 0, "CLASSIFICATION_TYPE": "U", "NORAD_CAT_ID": 34350, "ELEMENT_SET_NO": 999, "REV_AT_EPOCH": 88434, "BSTAR": 0.00030728389, "MEAN_MOTION_DOT": 1.104e-05, "MEAN_MOTION_DDOT": 0}, "tle": {"line1": "1 34350U 97051ES  25356.51376547  .00001104  00000+0  30728-3 0  9994", "line2": "2 34350  86.3272 358.5656 0023434 105.2385  21.6906 14.45408788884343"}}, "geometry": {"type": "Point", "coordinates": [162.55131309496434, 76.58733517654349]}}, {"type": "Feature", "properties": {"norad_id": 34366, "name": "IRIDIUM 33 DEB", "group": "iridium-33-debris", "lat": 44.07853501718823, "lon": 48.19823881057149, "alt_km": 700.8411633703781, "timestamp": "2025-12-23T09:49:07.468025+00:00", "meta": {"OBJECT_NAME": "IRIDIUM 33 DEB", "OBJECT_ID": "1997-051FJ", "EPOCH": "2025-12-22T10:47:10.372704", "MEAN_MOTION": 14.54128755, "ECCENTRICITY": 0.00230356, "INCLINATION": 86.3686, "RA_OF_ASC_NODE": 45.09, "ARG_OF_PERICENTER": 109.4758, "MEAN_ANOMALY": 314.4093, "EPHEMERIS_TYPE": 0, "CLASSIFICATION_TYPE": "U", "NORAD_CAT_ID": 34366, "ELEMENT_SET_NO": 999, "REV_AT_EPOCH": 88323, "BSTAR": 0.000894432, "MEAN_MOTION_DOT": 3.813e-05, "MEAN_MOTION_DDOT": 0}, "tle": {"line1": "1 34366U 97051FJ  25356.44942561  .00003813  00000+0  89443-3 0  9995", "line2": "2 34366  86.3686  45.0900 0023035 109.4758 314.4093 14.54128755883236"}}, "geometry": {"type": "Point", "coordinates": [48.19823881057149, 44.07853501718823]}}]}